NORAD_CAT_ID,OBJECT_NAME,OBJECT_TYPE,EPOCH,MEAN_MOTION,ECCENTRICITY,INCLINATION,RA_OF_ASC_NODE,ARG_OF_PERICENTER,MEAN_ANOMALY,BSTAR,MEAN_MOTION_DOT,MEAN_MOTION_DDOT,TLE_LINE0,TLE_LINE1,TLE_LINE2,SEMIMAJOR_AXIS,PERIOD,APOGEE,PERIGEE,DECAYED
53184.0,STARLINK-4257,PAYLOAD,2024-02-19 19:52:06,15.08838839,0.0001332,53.2163,245.4772,94.1976,265.9169,0.00011649,1.566e-05,0.0,0 STARLINK-4257,1 53184U 22083BE  24050.82784751  .00001566  00000-0  11649-3 0  9991,2 53184  53.2163 245.4772 0001332  94.1976 265.9169 15.08838839 89502,6917.884,95.438,540.67,538.827,0.0
53184.0,STARLINK-4257,PAYLOAD,2024-02-20 11:45:57,15.08835077,0.0001395,53.2166,242.5059,102.5334,257.5814,5.5636e-05,5.98e-06,0.0,0 STARLINK-4257,1 53184U 22083BE  24051.49025235  .00000598  00000-0  55636-4 0  9999,2 53184  53.2166 242.5059 0001395 102.5334 257.5814 15.08835077 88977,6917.895,95.438,540.725,538.795,0.0
53184.0,STARLINK-4257,PAYLOAD,2024-02-20 19:42:53,15.08832919,0.0001389,53.2168,241.0186,100.1134,260.0014,2.0089e-05,3.2e-07,0.0,0 STARLINK-4257,1 53184U 22083BE  24051.82145560  .00000032  00000-0  20089-4 0  9997,2 53184  53.2168 241.0186 0001389 100.1134 260.0014 15.08832919 89658,6917.902,95.438,540.728,538.806,0.0
53184.0,STARLINK-4257,PAYLOAD,2024-02-21 05:15:12,15.0883759,0.0001423,53.2175,239.234,97.389,262.7264,7.3417e-05,8.81e-06,0.0,0 STARLINK-4257,1 53184U 22083BE  24052.21889229  .00000881  00000-0  73417-4 0  9993,2 53184  53.2175 239.2340 0001423  97.3890 262.7264 15.08837590 89085,6917.888,95.438,540.737,538.768,0.0
53184.0,STARLINK-4257,PAYLOAD,2024-02-21 19:33:39,15.08846969,0.0001343,53.2169,236.5574,97.2287,262.8858,0.00013424,1.85e-05,0.0,0 STARLINK-4257,1 53184U 22083BE  24052.81504400  .00001850  00000-0  13424-3 0  9992,2 53184  53.2169 236.5574 0001343  97.2287 262.8858 15.08846969 89807,6917.859,95.437,540.653,538.795,0.0
53184.0,STARLINK-4257,PAYLOAD,2024-02-22 05:05:58,15.08842256,0.0001324,53.2168,234.773,95.5616,264.5527,9.8788e-05,1.285e-05,0.0,0 STARLINK-4257,1 53184U 22083BE  24053.21248755  .00001285  00000-0  98788-4 0  9994,2 53184  53.2168 234.7730 0001324  95.5616 264.5527 15.08842256 89869,6917.873,95.437,540.654,538.823,0.0
53184.0,STARLINK-4257,PAYLOAD,2024-02-22 20:59:50,15.08840391,0.0001239,53.216,231.7972,87.533,272.5804,7.8318e-05,9.59e-06,0.0,0 STARLINK-4257,1 53184U 22083BE  24053.87488985  .00000959  00000-0  78318-4 0  9991,2 53184  53.2160 231.7972 0001239  87.5330 272.5804 15.08840391 89332,6917.879,95.438,540.601,538.887,0.0
53184.0,STARLINK-4257,PAYLOAD,2024-02-23 04:56:46,15.0883643,0.0001305,53.2166,230.309,78.8154,281.2985,2.359e-06,-2.5e-06,0.0,0 STARLINK-4257,1 53184U 22083BE  24054.20609475 -.00000250  00000-0  23590-5 0  9996,2 53184  53.2166 230.3090 0001305  78.8154 281.2985 15.08836430 90018,6917.891,95.438,540.659,538.854,0.0
53184.0,STARLINK-4257,PAYLOAD,2024-02-23 19:15:15,15.08836226,0.0001237,53.2159,227.6348,81.6295,278.4838,-6.9005e-05,-1.386e-05,0.0,0 STARLINK-4257,1 53184U 22083BE  24054.80225889 -.00001386  00000-0 -69005-4 0  9997,2 53184  53.2159 227.6348 0001237  81.6295 278.4838 15.08836226 89473,6917.892,95.438,540.613,538.901,0.0
53184.0,STARLINK-4257,PAYLOAD,2024-02-24 04:47:33,15.08839765,0.0001212,53.2161,225.8508,84.9763,275.1367,2.1134e-05,4.9e-07,0.0,0 STARLINK-4257,1 53184U 22083BE  24055.19969483  .00000049  00000-0  21134-4 0  9999,2 53184  53.2161 225.8508 0001212  84.9763 275.1367 15.08839765 89532,6917.881,95.438,540.585,538.908,0.0
53184.0,STARLINK-4257,PAYLOAD,2024-02-24 17:30:38,15.08843301,0.0001189,53.2164,223.4709,86.9515,273.1613,0.00011822,1.594e-05,0.0,0 STARLINK-4257,1 53184U 22083BE  24055.72961010  .00001594  00000-0  11822-3 0  9994,2 53184  53.2164 223.4709 0001189  86.9515 273.1613 15.08843301 90245,6917.87,95.437,540.558,538.913,0.0
53184.0,STARLINK-4257,PAYLOAD,2024-02-25 14:10:39,15.08840807,0.0001233,53.2165,219.6063,81.0632,279.05,0.00017096,2.434e-05,0.0,0 STARLINK-4257,1 53184U 22083BE  24056.59073020  .00002434  00000-0  17096-3 0  9998,2 53184  53.2165 219.6063 0001233  81.0632 279.0500 15.08840807 89743,6917.878,95.438,540.596,538.89,0.0
53184.0,STARLINK-4257,PAYLOAD,2024-02-25 17:21:25,15.08835124,0.0001223,53.2171,219.0105,89.9726,270.1407,0.00037225,5.641e-05,0.0,0 STARLINK-4257,1 53184U 22083BE  24056.72321117  .00005641  00000-0  37225-3 0  9995,2 53184  53.2171 219.0105 0001223  89.9726 270.1407 15.08835124 90398,6917.895,95.438,540.606,538.914,0.0
53184.0,STARLINK-4257,PAYLOAD,2024-02-26 14:01:26,15.08837556,0.0001282,53.2154,215.1437,87.6126,272.5013,-2.2355e-05,-6.44e-06,0.0,0 STARLINK-4257,1 53184U 22083BE  24057.58433882 -.00000644  00000-0 -22355-4 0  9992,2 53184  53.2154 215.1437 0001282  87.6126 272.5013 15.08837556 89891,6917.888,95.438,540.64,538.866,0.0
53184.0,STARLINK-4257,PAYLOAD,2024-02-26 17:12:13,15.08835056,0.0001322,53.2176,214.5501,88.2722,271.8421,-4.2986e-05,-9.72e-06,0.0,0 STARLINK-4257,1 53184U 22083BE  24057.71682151 -.00000972  00000-0 -42986-4 0  9998,2 53184  53.2176 214.5501 0001322  88.2722 271.8421 15.08835056 90546,6917.896,95.438,540.675,538.846,0.0
53184.0,STARLINK-4257,PAYLOAD,2024-02-27 13:52:13,15.0884031,0.0001231,53.2169,210.6848,96.6644,263.4488,1.0308e-05,-1.24e-06,0.0,0 STARLINK-4257,1 53184U 22083BE  24058.57793734 -.00000124  00000-0  10308-4 0  9994,2 53184  53.2169 210.6848 0001231  96.6644 263.4488 15.08840310 90048,6917.879,95.438,540.596,538.893,0.0
53184.0,STARLINK-4257,PAYLOAD,2024-02-27 17:02:59,15.08845629,0.0001197,53.2166,210.0915,92.2604,267.8525,5.9933e-05,6.66e-06,0.0,0 STARLINK-4257,1 53184U 22083BE  24058.71041306  .00000666  00000-0  59933-4 0  9998,2 53184  53.2166 210.0915 0001197  92.2604 267.8525 15.08845629 90692,6917.863,95.437,540.556,538.9,0.0
53184.0,STARLINK-4257,PAYLOAD,2024-02-28 10:32:15,15.08821167,0.0001227,53.2165,206.8221,90.2663,269.8469,0.00025666,3.797e-05,0.0,0 STARLINK-4257,1 53184U 22083BE  24059.43906434  .00003797  00000-0  25666-3 0  9993,2 53184  53.2165 206.8221 0001227  90.2663 269.8469 15.08821167 90804,6917.938,95.439,540.652,538.954,0.0
53184.0,STARLINK-4257,PAYLOAD,2024-02-28 13:43:01,15.08833047,0.0001262,53.2166,206.2273,105.8909,254.2222,0.00010425,1.371e-05,0.0,0 STARLINK-4257,1 53184U 22083BE  24059.57154237  .00001371  00000-0  10425-3 0  9997,2 53184  53.2166 206.2273 0001262 105.8909 254.2222 15.08833047 90198,6917.902,95.438,540.64,538.894,0.0
53184.0,STARLINK-4257,PAYLOAD,2024-02-28 20:04:33,15.08841481,0.0001287,53.2158,205.0353,103.4097,256.7039,0.00014771,2.064e-05,0.0,0 STARLINK-4257,1 53184U 22083BE  24059.83649579  .00002064  00000-0  14771-3 0  9992,2 53184  53.2158 205.0353 0001287 103.4097 256.7039 15.08841481 90862,6917.876,95.437,540.631,538.851,0.0
53184.0,STARLINK-4257,PAYLOAD,2024-02-29 13:33:47,15.08846909,0.0001359,53.2165,201.7651,106.3208,253.7934,5.4536e-06,-2.01e-06,0.0,0 STARLINK-4257,1 53184U 22083BE  24060.56513763 -.00000201  00000-0  54536-5 0  9996,2 53184  53.2165 201.7651 0001359 106.3208 253.7934 15.08846909 90344,6917.859,95.437,540.664,538.784,0.0
53184.0,STARLINK-4257,PAYLOAD,2024-02-29 16:44:34,15.08844291,0.0001298,53.2159,201.168,90.2404,269.8737,8.1072e-05,1.003e-05,0.0,0 STARLINK-4257,1 53184U 22083BE  24060.69761693  .00001003  00000-0  81072-4 0  9991,2 53184  53.2159 201.1680 0001298  90.2404 269.8737 15.08844291 90367,6917.867,95.437,540.63,538.834,0.0
53184.0,STARLINK-4257,PAYLOAD,2024-03-01 08:38:25,15.08839581,0.0001436,53.2169,198.1985,73.529,286.586,8.1201e-05,1.005e-05,0.0,0 STARLINK-4257,1 53184U 22083BE  24061.36002200  .00001005  00000-0  81201-4 0  9994,2 53184  53.2169 198.1985 0001436  73.5290 286.5860 15.08839581 91092,6917.882,95.438,540.74,538.753,0.0
53184.0,STARLINK-4257,PAYLOAD,2024-03-01 13:24:35,15.08839278,0.0001431,53.2161,197.3046,79.0036,281.1117,8.6215e-05,1.084e-05,0.0,0 STARLINK-4257,1 53184U 22083BE  24061.55874152  .00001084  00000-0  86215-4 0  9995,2 53184  53.2161 197.3046 0001431  79.0036 281.1117 15.08839278 90499,6917.883,95.438,540.738,538.758,0.0
53184.0,STARLINK-4257,PAYLOAD,2024-03-01 16:35:21,15.08842933,0.0001488,53.2174,196.7115,73.2765,286.839,7.8669e-05,9.64e-06,0.0,0 STARLINK-4257,1 53184U 22083BE  24061.69122014  .00000964  00000-0  78669-4 0  9993,2 53184  53.2174 196.7115 0001488  73.2765 286.8390 15.08842933 90510,6917.871,95.437,540.766,538.707,0.0
53184.0,STARLINK-4257,PAYLOAD,2024-03-02 13:15:22,15.08844608,0.0001808,53.2176,192.846,61.0243,299.093,8.1279e-05,1.006e-05,0.0,0 STARLINK-4257,1 53184U 22083BE  24062.55233852  .00001006  00000-0  81279-4 0  9991,2 53184  53.2176 192.8460 0001808  61.0243 299.0930 15.08844608 90645,6917.866,95.437,540.982,538.481,0.0
53184.0,STARLINK-4257,PAYLOAD,2024-03-02 14:50:45,15.08845255,0.0001835,53.2174,192.5486,60.4304,299.6871,8.6191e-05,1.084e-05,0.0,0 STARLINK-4257,1 53184U 22083BE  24062.61857789  .00001084  00000-0  86191-4 0  9993,2 53184  53.2174 192.5486 0001835  60.4304 299.6871 15.08845255 91289,6917.864,95.437,540.999,538.46,0.0
53184.0,STARLINK-4257,PAYLOAD,2024-03-03 08:19:59,15.08841474,0.0001758,53.2175,189.2768,67.0025,293.1153,3.7355e-05,3.06e-06,0.0,0 STARLINK-4257,1 53184U 22083BE  24063.34722086  .00000306  00000-0  37355-4 0  9999,2 53184  53.2175 189.2768 0001758  67.0025 293.1153 15.08841474 91396,6917.876,95.437,540.957,538.525,0.0
53184.0,STARLINK-4257,PAYLOAD,2024-03-03 14:41:32,15.08840877,0.0001711,53.2175,188.0871,68.5894,291.5281,2.3573e-05,8.7e-07,0.0,0 STARLINK-4257,1 53184U 22083BE  24063.61218084  .00000087  00000-0  23573-4 0  9990,2 53184  53.2175 188.0871 0001711  68.5894 291.5281 15.08840877 90802,6917.878,95.437,540.926,538.559,0.0
53184.0,STARLINK-4257,PAYLOAD,2024-03-04 11:21:31,15.08850286,0.0001485,53.2167,184.2196,83.0676,277.0485,0.00013906,1.926e-05,0.0,0 STARLINK-4257,1 53184U 22083BE  24064.47328664  .00001926  00000-0  13906-3 0  9992,2 53184  53.2167 184.2196 0001485  83.0676 277.0485 15.08850286 91563,6917.849,95.437,540.741,538.687,0.0
